EUTELSAT 8 WEST B       
1 40875U 15039B   25303.82525262 -.00000056  00000+0  00000+0 0  9997
2 40875   0.0709  12.9529 0003975 211.4716 104.0567  1.00271944 37355
EUTELSAT 9B             
1 41310U 16005A   25303.82863263  .00000072  00000+0  00000+0 0  9999
2 41310   0.0543  69.1678 0003895 174.9885 102.5688  1.00270573 35819
EUTELSAT 65 WEST A      
1 41382U 16014A   25303.81389922 -.00000266  00000+0  00000+0 0  9998
2 41382   0.0716  45.5797 0002398 182.3852  39.2596  1.00271360 35239
EUTELSAT 117 WEST B     
1 41589U 16038B   25303.52605557 -.00000002  00000+0  00000+0 0  9994
2 41589   0.0117  99.8428 0000461 189.3915 182.2534  1.00273306 34368
EUTELSAT 172B           
1 42741U 17029B   25303.78954738  .00000004  00000+0  00000+0 0  9993
2 42741   0.0188 180.6643 0000175 278.5652  36.3874  1.00269947 31433
EUTELSAT 7C             
1 44334U 19034B   25303.82822432  .00000058  00000+0  00000+0 0  9990
2 44334   0.0668 186.2932 0003224  12.4795 145.8010  1.00270829  4530
EUTELSAT 5 WEST B       
1 44624U 19067A   25303.82585928 -.00000032  00000+0  00000+0 0  9997
2 44624   0.0686  11.0579 0003201 208.3423 112.3291  1.00271039 22133
EUTELSAT KONNECT        
1 45027U 20005B   25303.82828596  .00000059  00000+0  00000+0 0  9998
2 45027   0.0644  89.5404 0001143 173.7209  81.5387  1.00268473 22021
